NORAD_CAT_ID,OBJECT_NAME,OBJECT_TYPE,EPOCH,MEAN_MOTION,ECCENTRICITY,INCLINATION,RA_OF_ASC_NODE,ARG_OF_PERICENTER,MEAN_ANOMALY,BSTAR,MEAN_MOTION_DOT,MEAN_MOTION_DDOT,TLE_LINE0,TLE_LINE1,TLE_LINE2,SEMIMAJOR_AXIS,PERIOD,APOGEE,PERIGEE,DECAYED
50808.0,STARLINK-3355,PAYLOAD,2023-01-25 06:41:22,15.08836252,0.0001220999999999,53.2153,234.1412,75.1111,285.0016,0.00011197,1.494e-05,0.0,0 STARLINK-3355,1 50808U 22001F   23025.27873734  .00001494  00000-0  11197-3 0  9999,2 50808  53.2153 234.1412 0001221  75.1111 285.0016 15.08836252 58534,6917.892,95.438,540.602,538.9119999999999,0.0
50808.0,STARLINK-3355,PAYLOAD,2023-01-25 19:24:28,15.08834828,0.0001167,53.2167,231.7621,83.9991,276.1134,6.9597e-05,8.2e-06,0.0,0 STARLINK-3355,1 50808U 22001F   23025.80866156  .00000820  00000-0  69597-4 0  9998,2 50808  53.2167 231.7621 0001167  83.9991 276.1134 15.08834828 59862,6917.896,95.438,540.569,538.9540000000001,0.0
50808.0,STARLINK-3355,PAYLOAD,2023-01-26 12:53:42,15.08841374,0.0001139,53.2166,228.4909,79.9693,280.1428,0.00010136,1.326e-05,0.0,0 STARLINK-3355,1 50808U 22001F   23026.53729798  .00001326  00000-0  10136-3 0  9995,2 50808  53.2166 228.4909 0001139  79.9693 280.1428 15.08841374 58725,6917.876,95.437,540.529,538.953,0.0
50808.0,STARLINK-3355,PAYLOAD,2023-01-26 19:15:14,15.08844764,0.0001127999999999,53.2163,227.3018,79.9414,280.1705,0.00013029,1.787e-05,0.0,0 STARLINK-3355,1 50808U 22001F   23026.80225480  .00001787  00000-0  13029-3 0  9999,2 50808  53.2163 227.3018 0001128  79.9414 280.1705 15.08844764 60019,6917.866,95.437,540.511,538.95,0.0
50808.0,STARLINK-3355,PAYLOAD,2023-01-27 00:01:24,15.08846754,0.0001136,53.2163,226.4094,79.4121,280.6999,0.00013736,1.899e-05,0.0,0 STARLINK-3355,1 50808U 22001F   23027.00097264  .00001899  00000-0  13736-3 0  9998,2 50808  53.2163 226.4094 0001136  79.4121 280.6999 15.08846754 58795,6917.86,95.437,540.511,538.939,0.0
50808.0,STARLINK-3355,PAYLOAD,2023-01-27 19:06:02,15.08821513,0.0001171999999999,53.2154,222.8406,81.5395,278.573,0.00024145,3.555e-05,0.0,0 STARLINK-3355,1 50808U 22001F   23027.79586628  .00003555  00000-0  24145-3 0  9998,2 50808  53.2154 222.8406 0001172  81.5395 278.5730 15.08821513 60168,6917.937,95.439,540.613,538.991,0.0
50808.0,STARLINK-3355,PAYLOAD,2023-01-27 20:41:25,15.08835826,0.0001242,53.216,222.5427,75.0242,285.0888,6.5707e-05,7.58e-06,0.0,0 STARLINK-3355,1 50808U 22001F   23027.86210320  .00000758  00000-0  65707-4 0  9991,2 50808  53.2160 222.5427 0001242  75.0242 285.0888 15.08835826 58922,6917.893,95.438,540.617,538.899,0.0
50808.0,STARLINK-3355,PAYLOAD,2023-01-28 12:35:16,15.08843753,0.0001149,53.2158,219.5685,87.1914,272.9209,2.4753e-05,1.06e-06,0.0,0 STARLINK-3355,1 50808U 22001F   23028.52449842  .00000106  00000-0  24753-4 0  9991,2 50808  53.2158 219.5685 0001149  87.1914 272.9209 15.08843753 59029,6917.869,95.437,540.529,538.939,0.0
50808.0,STARLINK-3355,PAYLOAD,2023-01-28 18:56:48,15.08847001,0.0001227,53.2164,218.3812,77.0622,283.0507,6.2212e-05,7.03e-06,0.0,0 STARLINK-3355,1 50808U 22001F   23028.78945507  .00000703  00000-0  62212-4 0  9993,2 50808  53.2164 218.3812 0001227  77.0622 283.0507 15.08847001 60314,6917.859,95.437,540.573,538.875,0.0
50808.0,STARLINK-3355,PAYLOAD,2023-01-28 22:07:34,15.08848554,0.0001201,53.2156,217.7849,82.3625,277.7503,7.1949e-05,8.58e-06,0.0,0 STARLINK-3355,1 50808U 22001F   23028.92193282  .00000858  00000-0  71949-4 0  9992,2 50808  53.2156 217.7849 0001201  82.3625 277.7503 15.08848554 59084,6917.854,95.437,540.55,538.888,0.0
50808.0,STARLINK-3355,PAYLOAD,2023-01-29 06:04:32,15.08825656,0.000116,53.2166,216.2961,99.1711,260.9413,-4.6659e-05,-1.03e-05,0.0,0 STARLINK-3355,1 50808U 22001F   23029.25315098 -.00001030  00000-0 -46659-4 0  9995,2 50808  53.2166 216.2961 0001160  99.1711 260.9413 15.08825656 60387,6917.924,95.438,540.592,538.987,0.0
50808.0,STARLINK-3355,PAYLOAD,2023-01-29 21:58:24,15.08824811,0.0001263,53.2163,213.3252,87.5102,272.6034,-3.2349e-05,-8.02e-06,0.0,0 STARLINK-3355,1 50808U 22001F   23029.91555837 -.00000802  00000-0 -32349-4 0  9992,2 50808  53.2163 213.3252 0001263  87.5102 272.6034 15.08824811 59237,6917.927,95.439,540.666,538.918,0.0
50808.0,STARLINK-3355,PAYLOAD,2023-01-30 12:16:52,15.08831311,0.0001256,53.2166,210.6488,81.6542,278.4593,-5.0773e-05,-1.096e-05,0.0,0 STARLINK-3355,1 50808U 22001F   23030.51172014 -.00001096  00000-0 -50773-4 0  9999,2 50808  53.2166 210.6488 0001256  81.6542 278.4593 15.08831311 60572,6917.907,95.438,540.641,538.903,0.0
50808.0,STARLINK-3355,PAYLOAD,2023-01-31 12:07:39,15.08830632,0.0001346,53.2163,206.1879,85.3945,274.7201,0.00021573,3.146e-05,0.0,0 STARLINK-3355,1 50808U 22001F   23031.50532063  .00003146  00000-0  21573-3 0  9994,2 50808  53.2163 206.1879 0001346  85.3945 274.7201 15.08830632 59478,6917.909,95.438,540.705,538.843,0.0
50808.0,STARLINK-3355,PAYLOAD,2023-01-31 18:29:12,15.08836708,0.000133,53.2162,204.9988,84.08,276.0343,0.00026006,3.853e-05,0.0,0 STARLINK-3355,1 50808U 22001F   23031.77027811  .00003853  00000-0  26006-3 0  9994,2 50808  53.2162 204.9988 0001330  84.0800 276.0343 15.08836708 60769,6917.89,95.438,540.676,538.835,0.0
50808.0,STARLINK-3355,PAYLOAD,2023-02-01 10:23:02,15.08854984,0.0001278,53.2131,202.0234,77.8205,282.293,0.00033923,5.117e-05,0.0,0 STARLINK-3355,1 50808U 22001F   23032.43267049  .00005117  00000-0  33923-3 0  9998,2 50808  53.2131 202.0234 0001278  77.8205 282.2930 15.08854984 60866,6917.835,95.437,540.584,538.815,0.0
50808.0,STARLINK-3355,PAYLOAD,2023-02-01 21:30:43,15.08880168,0.0002023,53.2149,199.9439,74.1178,286.0037,0.00051891,7.989e-05,0.0,0 STARLINK-3355,1 50808U 22001F   23032.89633122  .00007989  00000-0  51891-3 0  9990,2 50808  53.2149 199.9439 0002023  74.1178 286.0037 15.08880168 60935,6917.758,95.435,541.022,538.223,0.0
50808.0,STARLINK-3355,PAYLOAD,2023-02-02 11:49:11,15.08851312,0.0002129,53.2145,197.266,80.4218,279.7014,-0.00014732,-2.633e-05,0.0,0 STARLINK-3355,1 50808U 22001F   23033.49249818 -.00002633  00000-0 -14732-3 0  9998,2 50808  53.2145 197.2660 0002129  80.4218 279.7014 15.08851312 59773,6917.846,95.437,541.184,538.238,0.0
50808.0,STARLINK-3355,PAYLOAD,2023-02-03 03:43:03,15.08832337,0.0001503,53.2159,194.2946,84.6849,275.4315,-0.00040171,-6.674e-05,0.0,0 STARLINK-3355,1 50808U 22001F   23034.15490303 -.00006674  00000-0 -40171-3 0  9994,2 50808  53.2159 194.2946 0001503  84.6849 275.4315 15.08832337 61128,6917.904,95.438,540.809,538.729,0.0
50808.0,STARLINK-3355,PAYLOAD,2023-02-03 11:39:59,15.08841005,0.0001429,53.2115,192.8063,84.4417,275.6738,-0.00030424,-5.127e-05,0.0,0 STARLINK-3355,1 50808U 22001F   23034.48610143 -.00005127  00000-0 -30424-3 0  9998,2 50808  53.2115 192.8063 0001429  84.4417 275.6738 15.08841005 59928,6917.877,95.437,540.731,538.754,0.0
50808.0,STARLINK-3355,PAYLOAD,2023-02-03 19:36:54,15.08846657,0.0001218,53.2113,191.3199,92.3522,267.7609,-0.00016119,-2.853e-05,0.0,0 STARLINK-3355,1 50808U 22001F   23034.81729679 -.00002853  00000-0 -16119-3 0  9998,2 50808  53.2113 191.3199 0001218  92.3522 267.7609 15.08846657 61224,6917.86,95.437,540.568,538.882,0.0
50808.0,STARLINK-3355,PAYLOAD,2023-02-04 09:55:23,15.08838816,8.65e-05,53.2142,188.6431,96.1885,263.9206,0.00023252,3.415e-05,0.0,0 STARLINK-3355,1 50808U 22001F   23035.41346387  .00003415  00000-0  23252-3 0  9995,2 50808  53.2142 188.6431 0000865  96.1885 263.9206 15.08838816 61314,6917.884,95.438,540.347,539.151,0.0
50808.0,STARLINK-3355,PAYLOAD,2023-02-04 19:27:42,15.08846893,0.0001235,53.2138,186.8591,85.8745,274.2388,0.00042068,6.415e-05,0.0,0 STARLINK-3355,1 50808U 22001F   23035.81090402  .00006415  00000-0  42068-3 0  9992,2 50808  53.2138 186.8591 0001235  85.8745 274.2388 15.08846893 60126,6917.859,95.437,540.579,538.87,0.0
50808.0,STARLINK-3355,PAYLOAD,2023-02-05 12:56:56,15.08841618,0.0001479,53.214,183.5879,89.4129,270.7032,0.00019552,2.825e-05,0.0,0 STARLINK-3355,1 50808U 22001F   23036.53954794  .00002825  00000-0  19552-3 0  9998,2 50808  53.2140 183.5879 0001479  89.4129 270.7032 15.08841618 61485,6917.875,95.437,540.764,538.717,0.0
50808.0,STARLINK-3355,PAYLOAD,2023-02-05 14:32:20,15.0884175,0.0001441,53.2142,183.2906,89.9802,270.1355,0.00016778,2.383e-05,0.0,0 STARLINK-3355,1 50808U 22001F   23036.60578732  .00002383  00000-0  16778-3 0  9996,2 50808  53.2142 183.2906 0001441  89.9802 270.1355 15.08841750 60249,6917.875,95.437,540.737,538.743,0.0
50808.0,STARLINK-3355,PAYLOAD,2023-02-05 20:53:52,15.08846694,0.0001304,53.2144,182.1,99.5959,260.518,0.00025775,3.817e-05,0.0,0 STARLINK-3355,1 50808U 22001F   23036.87074477  .00003817  00000-0  25775-3 0  9992,2 50808  53.2144 182.1000 0001304  99.5959 260.5180 15.08846694 60287,6917.86,95.437,540.627,538.823,0.0
50808.0,STARLINK-3355,PAYLOAD,2023-02-06 12:47:43,15.08844773,0.0001445,53.2145,179.1266,95.6992,264.4164,0.00016918,2.406e-05,0.0,0 STARLINK-3355,1 50808U 22001F   23037.53314630  .00002406  00000-0  16918-3 0  9996,2 50808  53.2145 179.1266 0001445  95.6992 264.4164 15.08844773 60380,6917.866,95.437,540.73,538.731,0.0
50808.0,STARLINK-3355,PAYLOAD,2023-02-06 19:09:16,15.08854107,0.0001326,53.2152,177.937,96.9345,263.1798,0.00034953,5.281e-05,0.0,0 STARLINK-3355,1 50808U 22001F   23037.79810217  .00005281  00000-0  34953-3 0  9999,2 50808  53.2152 177.9370 0001326  96.9345 263.1798 15.08854107 61678,6917.837,95.437,540.62,538.785,0.0
50808.0,STARLINK-3355,PAYLOAD,2023-02-07 09:27:44,15.08843572,0.000112,53.2166,175.2622,92.7825,267.3295,0.00017031,2.424e-05,0.0,0 STARLINK-3355,1 50808U 22001F   23038.39426530  .00002424  00000-0  17031-3 0  9991,2 50808  53.2166 175.2622 0001120  92.7825 267.3295 15.08843572 61765,6917.869,95.437,540.509,538.96,0.0
50808.0,STARLINK-3355,PAYLOAD,2023-02-07 14:13:53,15.08849774,0.0001365,53.2153,174.3691,97.8461,262.2686,0.00031841,4.785e-05,0.0,0 STARLINK-3355,1 50808U 22001F   23038.59298281  .00004785  00000-0  31841-3 0  9990,2 50808  53.2153 174.3691 0001365  97.8461 262.2686 15.08849774 60543,6917.851,95.437,540.66,538.771,0.0
